{"type": "FeatureCollection", "features": [ {"type": "Feature", "properties": {"norad_id": 32230, "name": "FENGYUN 1C DEB", "group": "fengyun-1c-debris", "lat": 69.96485747651148, "lon": -7.444247570319013, "alt_km": 676.0219001202149, "timestamp": "2025-12-22T22:44:21.261726+00:00", "meta": {"OBJECT_NAME": "FENGYUN 1C DEB", "OBJECT_ID": "1999-025CWC", "EPOCH": "2025-12-20T09:22:08.439744", "MEAN_MOTION": 14.56275202, "ECCENTRICITY": 0.00497589, "INCLINATION": 98.8696, "RA_OF_ASC_NODE": 144.4839, "ARG_OF_PERICENTER": 64.7578, "MEAN_ANOMALY": 324.6156, "EPHEMERIS_TYPE": 0, "CLASSIFICATION_TYPE": "U", "NORAD_CAT_ID": 32230, "ELEMENT_SET_NO": 999, "REV_AT_EPOCH": 60781, "BSTAR": 0.001606742, "MEAN_MOTION_DOT": 7.185e-05, "MEAN_MOTION_DDOT": 0}, "tle": {"line1": "1 32230U 99025CWC 25354.39037546  .00007185  00000+0  16067-2 0  9993", "line2": "2 32230  98.8696 144.4839 0049758  64.7578 324.6156 14.56275202607814"}}, "geometry": {"type": "Point", "coordinates": [-7.444247570319013, 69.96485747651148]}}, {"type": "Feature", "properties": {"norad_id": 32234, "name": "FENGYUN 1C DEB", "group": "fengyun-1c-debris", "lat": 60.33075243217042, "lon": 41.294090603822546, "alt_km": 1007.0146199412357, "timestamp": "2025-12-22T22:44:21.261738+00:00", "meta": {"OBJECT_NAME": "FENGYUN 1C DEB", "OBJECT_ID": "1999-025CWG", "EPOCH": "2025-12-14T12:38:46.497984", "MEAN_MOTION": 13.9413283, "ECCENTRICITY": 0.01374559, "INCLINATION": 98.529, "RA_OF_ASC_NODE": 198.2432, "ARG_OF_PERICENTER": 331.2039, "MEAN_ANOMALY": 28.1585, "EPHEMERIS_TYPE": 0, "CLASSIFICATION_TYPE": "U", "NORAD_CAT_ID": 32234, "ELEMENT_SET_NO": 999, "REV_AT_EPOCH": 93234, "BSTAR": 0.0014985343, "MEAN_MOTION_DOT": 2.108e-05, "MEAN_MOTION_DDOT": 0}, "tle": {"line1": "1 32234U 99025CWG 25348.52692706  .00002108  00000+0  14985-2 0  9997", "line2": "2 32234  98.5290 198.2432 0137455 331.2039  28.1585 13.94132830932348"}}, "geometry": {"type": "Point", "coordinates": [41.294090603822546, 60.33075243217042]}}, {"type": "Feature", "properties": {"norad_id": 32241, "name": "FENGYUN 1C DEB", "group": "fengyun-1c-debris", "lat": -14.599912885176478, "lon": 29.20251665983028, "alt_km": 892.1188793574001, "timestamp": "2025-12-22T22:44:21.261750+00:00", "meta": {"OBJECT_NAME": "FENGYUN 1C DEB", "OBJECT_ID": "1999-025CWP", "EPOCH": "2025-12-21T19:55:08.747040", "MEAN_MOTION": 14.28805147, "ECCENTRICITY": 0.01466219, "INCLINATION": 99.0761, "RA_OF_ASC_NODE": 25.6535, "ARG_OF_PERICENTER": 197.3745, "MEAN_ANOMALY": 162.2389, "EPHEMERIS_TYPE": 0, "CLASSIFICATION_TYPE": "U", "NORAD_CAT_ID": 32241, "ELEMENT_SET_NO": 999, "REV_AT_EPOCH": 93953, "BSTAR": 0.0010256045, "MEAN_MOTION_DOT": 2.852e-05, "MEAN_MOTION_DDOT": 0}, "tle": {"line1": "1 32241U 99025CWP 25355.82996235  .00002852  00000+0  10256-2 0  9993", "line2": "2 32241  99.0761  25.6535 0146621 197.3745 162.2389 14.28805147939538"}}, "geometry": {"type": "Point", "coordinates": [29.20251665983028, -14.599912885176478]}}, {"type": "Feature", "properties": {"norad_id": 32243, "name": "FENGYUN 1C DEB", "group": "fengyun-1c-debris", "lat": 54.4417338661965, "lon": -147.58777239649424, "alt_km": 702.2011014002965, "timestamp": "2025-12-22T22:44:21.261761+00:00", "meta": {"OBJECT_NAME": "FENGYUN 1C DEB", "OBJECT_ID": "1999-025CWR", "EPOCH": "2025-12-20T06:54:58.008096", "MEAN_MOTION": 14.04660142, "ECCENTRICITY": 0.02690971, "INCLINATION": 98.2673, "RA_OF_ASC_NODE": 18.2504, "ARG_OF_PERICENTER": 102.1335, "MEAN_ANOMALY": 261.0117, "EPHEMERIS_TYPE": 0, "CLASSIFICATION_TYPE": "U", "NORAD_CAT_ID": 32243, "ELEMENT_SET_NO": 999, "REV_AT_EPOCH": 93694, "BSTAR": 0.0015029766, "MEAN_MOTION_DOT": 3.288e-05, "MEAN_MOTION_DDOT": 0}, "tle": {"line1": "1 32243U 99025CWR 25354.28817139  .00003288  00000+0  15030-2 0  9998", "line2": "2 32243  98.2673  18.2504 0269097 102.1335 261.0117 14.04660142936946"}}, "geometry": {"type": "Point", "coordinates": [-147.58777239649424, 54.4417338661965]}}, {"type": "Feature", "properties": {"norad_id": 32245, "name": "FENGYUN 1C DEB", "group": "fengyun-1c-debris", "lat": 10.71207657218079, "lon": 15.387246459596883, "alt_km": 692.3321442114757, "timestamp": "2025-12-22T22:44:21.261771+00:00", "meta": {"OBJECT_NAME": "FENGYUN 1C DEB", "OBJECT_ID": "1999-025CWT", "EPOCH": "2025-12-16T06:38:31.473888", "MEAN_MOTION": 14.77030772, "ECCENTRICITY": 0.0097149, "INCLINATION": 98.6547, "RA_OF_ASC_NODE": 186.5841, "ARG_OF_PERICENTER": 330.7675, "MEAN_ANOMALY": 28.8116, "EPHEMERIS_TYPE": 0, "CLASSIFICATION_TYPE": "U", "NORAD_CAT_ID": 32245, "ELEMENT_SET_NO": 999, "REV_AT_EPOCH": 66158, "BSTAR": 0.00082943136, "MEAN_MOTION_DOT": 6.263e-05, "MEAN_MOTION_DDOT": 0}, "tle": {"line1": "1 32245U 99025CWT 25350.27675317  .00006263  00000+0  82943-3 0  9999", "line2": "2 32245  98.6547 186.5841 0097149 330.7675  28.8116 14.77030772661581"}}, "geometry": {"type": "Point", "coordinates": [15.387246459596883, 10.71207657218079]}}, {"type": "Feature", "properties": {"norad_id": 32304, "name": "FENGYUN 1C DEB", "group": "fengyun-1c-debris", "lat": -75.46838377874371, "lon": -7.618123927417976, "alt_km": 726.8806085463093, "timestamp": "2025-12-22T22:44:21.261781+00:00", "meta": {"OBJECT_NAME": "FENGYUN 1C DEB", "OBJECT_ID": "1999-025CWV", "EPOCH": "2025-12-03T02:19:20.087328", "MEAN_MOTION": 14.50391603, "ECCENTRICITY": 0.00495576, "INCLINATION": 99.3949, "RA_OF_ASC_NODE": 290.5539, "ARG_OF_PERICENTER": 255.7789, "MEAN_ANOMALY": 103.7894, "EPHEMERIS_TYPE": 0, "CLASSIFICATION_TYPE": "U", "NORAD_CAT_ID": 32304, "ELEMENT_SET_NO": 999, "REV_AT_EPOCH": 56133, "BSTAR": 0.0019806873, "MEAN_MOTION_DOT": 7.809e-05, "MEAN_MOTION_DDOT": 0}, "tle": {"line1": "1 32304U 99025CWV 25337.09676027  .00007809  00000+0  19807-2 0  9994", "line2": "2 32304  99.3949 290.5539 0049557 255.7789 103.7894 14.50391603561335"}}, "geometry": {"type": "Point", "coordinates": [-7.618123927417976, -75.46838377874371]}}, {"type": "Feature", "properties": {"norad_id": 32308, "name": "FENGYUN 1C DEB", "group": "fengyun-1c-debris", "lat": -34.114878053827134, "lon": 53.7132741072067, "alt_km": 847.4439092072853, "timestamp": "2025-12-22T22:44:21.261792+00:00", "meta": {"OBJECT_NAME": "FENGYUN 1C DEB", "OBJECT_ID": "1999-025CWZ", "EPOCH": "2025-12-18T02:43:23.295648", "MEAN_MOTION": 14.05525608, "ECCENTRICITY": 0.01083328, "INCLINATION": 97.7739, "RA_OF_ASC_NODE": 44.2538, "ARG_OF_PERICENTER": 44.9982, "MEAN_ANOMALY": 315.9904, "EPHEMERIS_TYPE": 0, "CLASSIFICATION_TYPE": "U", "NORAD_CAT_ID": 32308, "ELEMENT_SET_NO": 999, "REV_AT_EPOCH": 65487, "BSTAR": 0.0012185561, "MEAN_MOTION_DOT": 2.054e-05, "MEAN_MOTION_DDOT": 0}, "tle": {"line1": "1 32308U 99025CWZ 25352.11346407  .00002054  00000+0  12186-2 0  9994", "line2": "2 32308  97.7739  44.2538 0108332  44.9982 315.9904 14.05525608654876"}}, "geometry": {"type": "Point", "coordinates": [53.7132741072067, -34.114878053827134]}}, {"type": "Feature", "properties": {"norad_id": 32314, "name": "FENGYUN 1C DEB", "group": "fengyun-1c-debris", "lat": 23.035244998302417, "lon": 99.23596370344467, "alt_km": 650.1745683126546, "timestamp": "2025-12-22T22:44:21.261802+00:00", "meta": {"OBJECT_NAME": "FENGYUN 1C DEB", "OBJECT_ID": "1999-025CXF", "EPOCH": "2025-12-21T06:03:37.298592", "MEAN_MOTION": 14.79709191, "ECCENTRICITY": 0.0148738, "INCLINATION": 98.8639, "RA_OF_ASC_NODE": 101.1715, "ARG_OF_PERICENTER": 130.9368, "MEAN_ANOMALY": 230.4828, "EPHEMERIS_TYPE": 0, "CLASSIFICATION_TYPE": "U", "NORAD_CAT_ID": 32314, "ELEMENT_SET_NO": 999, "REV_AT_EPOCH": 97556, "BSTAR": 0.0010909, "MEAN_MOTION_DOT": 9.834e-05, "MEAN_MOTION_DDOT": 0}, "tle": {"line1": "1 32314U 99025CXF 25355.25251503  .00009834  00000+0  10909-2 0  9995", "line2": "2 32314  98.8639 101.1715 0148738 130.9368 230.4828 14.79709191975562"}}, "geometry": {"type": "Point", "coordinates": [99.23596370344467, 23.035244998302417]}}, {"type": "Feature", "properties": {"norad_id": 32316, "name": "FENGYUN 1C DEB", "group": "fengyun-1c-debris", "lat": 76.31034666549904, "lon": -111.6388646962048, "alt_km": 729.6859366600665, "timestamp": "2025-12-22T22:44:21.261812+00:00", "meta": {"OBJECT_NAME": "FENGYUN 1C DEB", "OBJECT_ID": "1999-025CXH", "EPOCH": "2025-12-21T20:38:09.037248", "MEAN_MOTION": 14.51975786, "ECCENTRICITY": 0.00264467, "INCLINATION": 99.5281, "RA_OF_ASC_NODE": 23.536, "ARG_OF_PERICENTER": 301.6785, "MEAN_ANOMALY": 236.0448, "EPHEMERIS_TYPE": 0, "CLASSIFICATION_TYPE": "U", "NORAD_CAT_ID": 32316, "ELEMENT_SET_NO": 999, "REV_AT_EPOCH": 95909, "BSTAR": 0.0013440702, "MEAN_MOTION_DOT": 5.398e-05, "MEAN_MOTION_DDOT": 0}, "tle": {"line1": "1 32316U 99025CXH 25355.85982682  .00005398  00000+0  13441-2 0  9997", "line2": "2 32316  99.5281  23.5360 0026446 301.6785 236.0448 14.51975786959094"}}, "geometry": {"type": "Point", "coordinates": [-111.6388646962048, 76.31034666549904]}}, {"type": "Feature", "properties": {"norad_id": 32320, "name": "FENGYUN 1C DEB", "group": "fengyun-1c-debris", "lat": 25.32682282002936, "lon": 41.07031698475266, "alt_km": 798.4562698580476, "timestamp": "2025-12-22T22:44:21.261822+00:00", "meta": {"OBJECT_NAME": "FENGYUN 1C DEB", "OBJECT_ID": "1999-025CXM", "EPOCH": "2025-12-19T20:27:32.982912", "MEAN_MOTION": 14.3617206, "ECCENTRICITY": 0.00563043, "INCLINATION": 100.3749, "RA_OF_ASC_NODE": 212.377, "ARG_OF_PERICENTER": 28.0804, "MEAN_ANOMALY": 332.3393, "EPHEMERIS_TYPE": 0, "CLASSIFICATION_TYPE": "U", "NORAD_CAT_ID": 32320, "ELEMENT_SET_NO": 999, "REV_AT_EPOCH": 62275, "BSTAR": 0.00057587, "MEAN_MOTION_DOT": 1.65e-05, "MEAN_MOTION_DDOT": 0}, "tle": {"line1": "1 32320U 99025CXM 25353.85246508  .00001650  00000+0  57587-3 0  9997", "line2": "2 32320 100.3749 212.3770 0056304  28.0804 332.3393 14.36172060622756"}}, "geometry": {"type": "Point", "coordinates": [41.07031698475266, 25.32682282002936]}}]}